NORAD_CAT_ID,OBJECT_NAME,OBJECT_TYPE,EPOCH,MEAN_MOTION,ECCENTRICITY,INCLINATION,RA_OF_ASC_NODE,ARG_OF_PERICENTER,MEAN_ANOMALY,BSTAR,MEAN_MOTION_DOT,MEAN_MOTION_DDOT,TLE_LINE0,TLE_LINE1,TLE_LINE2,SEMIMAJOR_AXIS,PERIOD,APOGEE,PERIGEE,DECAYED
53165.0,STARLINK-4090,PAYLOAD,2023-08-07 01:02:27,15.08817466,0.0001439,53.2172,89.2932,87.0078,273.1079,-0.00031126,-5.235e-05,0.0,0 STARLINK-4090,1 53165U 22083AK  23219.04337698 -.00005235  00000-0 -31126-3 0  9995,2 53165  53.2172  89.2932 0001439  87.0078 273.1079 15.08817466 59236,6917.949,95.439,540.81,538.819,0.0
53165.0,STARLINK-4090,PAYLOAD,2023-08-07 08:59:23,15.08826503,0.0001192,53.2167,87.8075,85.4131,274.6997,-4.95e-06,-3.67e-06,0.0,0 STARLINK-4090,1 53165U 22083AK  23219.37457922 -.00000367  00000-0 -49500-5 0  9992,2 53165  53.2167  87.8075 0001192  85.4131 274.6997 15.08826503 59282,6917.922,95.438,540.611,538.962,0.0
53165.0,STARLINK-4090,PAYLOAD,2023-08-08 00:53:15,15.08853121,0.0001157,53.2162,84.8335,69.3791,290.7325,0.0013085,0.00020606,0.0,0 STARLINK-4090,1 53165U 22083AK  23220.03698174  .00020606  00000-0  13085-2 0  9995,2 53165  53.2162  84.8335 0001157  69.3791 290.7325 15.08853121 59388,6917.84,95.437,540.506,538.905,0.0
53165.0,STARLINK-4090,PAYLOAD,2023-08-09 00:44:00,15.08882393,0.0001127,53.217,80.3723,69.5533,290.558,0.0010915,0.00017146,0.0,0 STARLINK-4090,1 53165U 22083AK  23221.03056438  .00017146  00000-0  10915-2 0  9991,2 53165  53.2170  80.3723 0001127  69.5533 290.5580 15.08882393 59533,6917.751,95.435,540.395,538.836,0.0
53165.0,STARLINK-4090,PAYLOAD,2023-08-10 00:34:47,15.08848232,0.0001029,53.2171,75.9123,81.412,278.6989,0.00037534,5.692e-05,0.0,0 STARLINK-4090,1 53165U 22083AK  23222.02416590  .00005692  00000-0  37534-3 0  9990,2 53165  53.2171  75.9123 0001029  81.4120 278.6989 15.08848232 59684,6917.855,95.437,540.432,539.008,0.0
53165.0,STARLINK-4090,PAYLOAD,2023-08-10 21:14:48,15.08840678,0.0001089,53.217,72.0469,83.136,276.9756,0.00020569,2.987e-05,0.0,0 STARLINK-4090,1 53165U 22083AK  23222.88528841  .00002987  00000-0  20569-3 0  9991,2 53165  53.2170  72.0469 0001089  83.1360 276.9756 15.08840678 59819,6917.878,95.438,540.497,538.99,0.0
53165.0,STARLINK-4090,PAYLOAD,2023-08-11 17:54:49,15.08836481,0.00011,53.2169,68.1814,84.2022,275.9095,3.0903e-05,2.04e-06,0.0,0 STARLINK-4090,1 53165U 22083AK  23223.74641092  .00000204  00000-0  30903-4 0  9995,2 53165  53.2169  68.1814 0001100  84.2022 275.9095 15.08836481 59944,6917.891,95.438,540.517,538.995,0.0
53165.0,STARLINK-4090,PAYLOAD,2023-08-12 00:16:22,15.0884244,0.00012,53.2158,66.9916,95.244,264.869,0.0001294,1.772e-05,0.0,0 STARLINK-4090,1 53165U 22083AK  23224.01136931  .00001772  00000-0  12940-3 0  9998,2 53165  53.2158  66.9916 0001200  95.2440 264.8690 15.08842440 59982,6917.873,95.437,540.568,538.908,0.0
53165.0,STARLINK-4090,PAYLOAD,2023-08-13 19:11:47,15.08843851,0.0001164,53.216,58.9616,90.0718,270.0408,0.00012709,1.736e-05,0.0,0 STARLINK-4090,1 53165U 22083AK  23225.79985160  .00001736  00000-0  12709-3 0  9993,2 53165  53.2160  58.9616 0001164  90.0718 270.0408 15.08843851 60258,6917.869,95.437,540.539,538.928,0.0
53165.0,STARLINK-4090,PAYLOAD,2023-08-14 22:13:19,15.08875475,0.0001715,53.218,53.9124,71.8734,288.2444,7.2086e-05,8.6e-06,0.0,0 STARLINK-4090,1 53165U 22083AK  23226.92592276  .00000860  00000-0  72086-4 0  9993,2 53165  53.2180  53.9124 0001715  71.8734 288.2444 15.08875475 60423,6917.772,95.435,540.823,538.451,0.0
53165.0,STARLINK-4090,PAYLOAD,2023-08-15 06:10:15,15.08850518,0.0001765,53.213,52.4252,62.2653,297.8518,0.00022097,3.231e-05,0.0,0 STARLINK-4090,1 53165U 22083AK  23227.25712676  .00003231  00000-0  22097-3 0  9999,2 53165  53.2130  52.4252 0001765  62.2653 297.8518 15.08850518 60477,6917.848,95.437,540.934,538.492,0.0
53165.0,STARLINK-4090,PAYLOAD,2023-08-15 18:53:21,15.08842194,0.0001746,53.2201,50.0418,90.3434,269.7759,5.2015e-05,5.4e-06,0.0,0 STARLINK-4090,1 53165U 22083AK  23227.78705003  .00000540  00000-0  52015-4 0  9997,2 53165  53.2201  50.0418 0001746  90.3434 269.7759 15.08842194 60557,6917.874,95.437,540.947,538.531,0.0
53165.0,STARLINK-4090,PAYLOAD,2023-08-15 22:04:07,15.08832268,0.0001303,53.2155,49.4478,87.3212,272.793,-0.0001054,-1.965e-05,0.0,0 STARLINK-4090,1 53165U 22083AK  23227.91953446 -.00001965  00000-0 -10540-3 0  9998,2 53165  53.2155  49.4478 0001303  87.3212 272.7930 15.08832268 60570,6917.904,95.438,540.67,538.868,0.0
53165.0,STARLINK-4090,PAYLOAD,2023-08-16 18:44:08,15.08840605,0.0001055,53.2151,45.5818,73.994,286.1168,-2.9065e-05,-7.5e-06,0.0,0 STARLINK-4090,1 53165U 22083AK  23228.78065218 -.00000750  00000-0 -29065-4 0  9999,2 53165  53.2151  45.5818 0001055  73.9940 286.1168 15.08840605 60705,6917.879,95.438,540.473,539.014,0.0
53165.0,STARLINK-4090,PAYLOAD,2023-08-18 04:07:14,15.08841697,9.85e-05,53.2147,39.3369,63.1476,296.9617,0.00013173,1.809e-05,0.0,0 STARLINK-4090,1 53165U 22083AK  23230.17169234  .00001809  00000-0  13173-3 0  9994,2 53165  53.2147  39.3369 0000985  63.1476 296.9617 15.08841697 60911,6917.875,95.437,540.422,539.059,0.0
53165.0,STARLINK-4090,PAYLOAD,2023-08-19 10:19:34,15.08837049,7.61e-05,53.213,33.6871,71.1783,288.9291,1.9124e-05,1.7e-07,0.0,0 STARLINK-4090,1 53165U 22083AK  23231.43025597  .00000017  00000-0  19124-4 0  9990,2 53165  53.2130  33.6871 0000761  71.1783 288.9291 15.08837049 61107,6917.889,95.438,540.281,539.228,0.0
53165.0,STARLINK-4090,PAYLOAD,2023-08-19 19:51:52,15.08843959,0.0001017,53.2196,31.9044,80.3064,279.8043,6.5562e-05,7.56e-06,0.0,0 STARLINK-4090,1 53165U 22083AK  23231.82769504  .00000756  00000-0  65562-4 0  9993,2 53165  53.2196  31.9044 0001017  80.3064 279.8043 15.08843959 61168,6917.868,95.437,540.437,539.03,0.0
53165.0,STARLINK-4090,PAYLOAD,2023-08-20 18:07:17,15.08831173,0.0001066,53.2185,27.7403,61.3647,298.7452,4.3785e-05,4.09e-06,0.0,0 STARLINK-4090,1 53165U 22083AK  23232.75506909  .00000409  00000-0  43785-4 0  9992,2 53165  53.2185  27.7403 0001066  61.3647 298.7452 15.08831173 61303,6917.907,95.438,540.51,539.035,0.0
53165.0,STARLINK-4090,PAYLOAD,2023-08-21 10:01:08,15.0884373,8.95e-05,53.2178,24.7664,83.8374,276.272,0.00027851,4.148e-05,0.0,0 STARLINK-4090,1 53165U 22083AK  23233.41746512  .00004148  00000-0  27851-3 0  9991,2 53165  53.2178  24.7664 0000895  83.8374 276.2720 15.08843730 61408,6917.869,95.437,540.353,539.115,0.0
53165.0,STARLINK-4090,PAYLOAD,2023-08-21 17:58:04,15.0885671,9.57e-05,53.2179,23.2791,97.7544,262.3556,0.00048641,7.465e-05,0.0,0 STARLINK-4090,1 53165U 22083AK  23233.74865829  .00007465  00000-0  48641-3 0  9995,2 53165  53.2179  23.2791 0000957  97.7544 262.3556 15.08856710 61456,6917.829,95.436,540.356,539.032,0.0
53165.0,STARLINK-4090,PAYLOAD,2023-08-22 19:24:14,15.08849928,0.0002324,53.218,18.522,59.3109,300.8112,0.0002613,3.874e-05,0.0,0 STARLINK-4090,1 53165U 22083AK  23234.80850649  .00003874  00000-0  26130-3 0  9996,2 53165  53.2180  18.5220 0002324  59.3109 300.8112 15.08849928 61610,6917.85,95.437,541.323,538.107,0.0
53165.0,STARLINK-4090,PAYLOAD,2023-08-24 17:30:25,15.08844028,0.0001366,53.2193,9.8934,98.7112,261.4035,0.00021094,3.071e-05,0.0,0 STARLINK-4090,1 53165U 22083AK  23236.72946271  .00003071  00000-0  21094-3 0  9999,2 53165  53.2193   9.8934 0001366  98.7112 261.4035 15.08844028 61279,6917.868,95.437,540.678,538.788,0.0
53165.0,STARLINK-4090,PAYLOAD,2023-08-25 12:35:03,15.08838052,0.0001331,53.2183,6.326,105.6265,254.4874,0.00015584,2.193e-05,0.0,0 STARLINK-4090,1 53165U 22083AK  23237.52434548  .00002193  00000-0  15584-3 0  9998,2 53165  53.2183   6.3260 0001331 105.6265 254.4874 15.08838052 61397,6917.886,95.438,540.672,538.831,0.0
53165.0,STARLINK-4090,PAYLOAD,2023-08-25 18:56:35,15.088431,0.0001328,53.2178,5.1374,107.8157,252.2981,7.6997e-05,9.38e-06,0.0,0 STARLINK-4090,1 53165U 22083AK  23237.78930311  .00000938  00000-0  76997-4 0  9996,2 53165  53.2178   5.1374 0001328 107.8157 252.2981 15.08843100 62064,6917.871,95.437,540.655,538.817,0.0
53165.0,STARLINK-4090,PAYLOAD,2023-08-26 12:25:50,15.08838713,0.0001433,53.2174,1.8656,114.8848,245.2294,5.8669e-05,6.46e-06,0.0,0 STARLINK-4090,1 53165U 22083AK  23238.51794602  .00000646  00000-0  58669-4 0  9991,2 53165  53.2174   1.8656 0001433 114.8848 245.2294 15.08838713 61543,6917.884,95.438,540.741,538.758,0.0
53165.0,STARLINK-4090,PAYLOAD,2023-08-26 17:11:59,15.08845457,0.000135,53.2181,0.9733,97.8277,262.2868,0.00016545,2.347e-05,0.0,0 STARLINK-4090,1 53165U 22083AK  23238.71666394  .00002347  00000-0  16545-3 0  9995,2 53165  53.2181   0.9733 0001350  97.8277 262.2868 15.08845457 61573,6917.864,95.437,540.663,538.795,0.0
53165.0,STARLINK-4090,PAYLOAD,2023-08-27 17:02:46,15.08844629,0.0001132,53.218,356.515,90.5607,269.5515,0.00014171,1.968e-05,0.0,0 STARLINK-4090,1 53165U 22083AK  23239.71026581  .00001968  00000-0  14171-3 0  9995,2 53165  53.2180 356.5150 0001132  90.5607 269.5515 15.08844629 62356,6917.866,95.437,540.514,538.948,0.0
53165.0,STARLINK-4090,PAYLOAD,2023-08-28 00:59:43,15.08836483,0.000122,53.2188,355.0269,106.6366,253.476,7.1446e-05,8.49e-06,0.0,0 STARLINK-4090,1 53165U 22083AK  23240.04147006  .00000849  00000-0  71446-4 0  9995,2 53165  53.2188 355.0269 0001220 106.6366 253.4760 15.08836483 62407,6917.891,95.438,540.6,538.912,0.0
53165.0,STARLINK-4090,PAYLOAD,2023-08-28 15:18:11,15.08843342,0.0001241,53.2169,352.3552,86.228,273.8854,8.2931e-05,1.032e-05,0.0,0 STARLINK-4090,1 53165U 22083AK  23240.63762886  .00001032  00000-0  82931-4 0  9995,2 53165  53.2169 352.3552 0001241  86.2280 273.8854 15.08843342 61863,6917.87,95.437,540.594,538.877,0.0
53165.0,STARLINK-4090,PAYLOAD,2023-08-29 07:12:02,15.08846705,0.0001384,53.217,349.3821,71.6928,288.4214,5.9708e-05,6.63e-06,0.0,0 STARLINK-4090,1 53165U 22083AK  23241.30002963  .00000663  00000-0  59708-4 0  9998,2 53165  53.2170 349.3821 0001384  71.6928 288.4214 15.08846705 62594,6917.86,95.437,540.682,538.767,0.0
